[{"OBJECT_NAME":"STARLINK-3638","OBJECT_ID":"2022-017U","EPOCH":"2026-03-09T22:07:14.121408","MEAN_MOTION":15.08817254,"ECCENTRICITY":0.00014038,"INCLINATION":53.2192,"RA_OF_ASC_NODE":348.0787,"ARG_OF_PERICENTER":107.8319,"MEAN_ANOMALY":252.2826,"EPHEMERIS_TYPE":0,"CLASSIFICATION_TYPE":"U","NORAD_CAT_ID":51786,"ELEMENT_SET_NO":999,"REV_AT_EPOCH":22231,"BSTAR":0.00017953378,"MEAN_MOTION_DOT":2.569e-5,"MEAN_MOTION_DDOT":0},{"OBJECT_NAME":"JILIN-1 KUANFU 01C","OBJECT_ID":"2022-048A","EPOCH":"2026-03-09T22:44:12.026688","MEAN_MOTION":15.09601076,"ECCENTRICITY":0.00140886,"INCLINATION":97.5312,"RA_OF_ASC_NODE":147.8831,"ARG_OF_PERICENTER":308.8335,"MEAN_ANOMALY":51.1636,"EPHEMERIS_TYPE":0,"CLASSIFICATION_TYPE":"U","NORAD_CAT_ID":52443,"ELEMENT_SET_NO":999,"REV_AT_EPOCH":21222,"BSTAR":0.00028577595,"MEAN_MOTION_DOT":4.539e-5,"MEAN_MOTION_DDOT":0}]
